CSS (TIANHE)            
1 48274U 21035A   24157.91052792  .00021580  00000+0  24887-3 0  9997
2 48274  41.4665 151.8370 0001692 179.0054 181.0788 15.61418629177339
